[{"OBJECT_NAME":"STARLINK-31126","OBJECT_ID":"2023-211J","EPOCH":"2026-03-09T01:26:59.563968","MEAN_MOTION":15.27578005,"ECCENTRICITY":0.00015842,"INCLINATION":43.0014,"RA_OF_ASC_NODE":88.3695,"ARG_OF_PERICENTER":283.5016,"MEAN_ANOMALY":76.5659,"EPHEMERIS_TYPE":0,"CLASSIFICATION_TYPE":"U","NORAD_CAT_ID":58675,"ELEMENT_SET_NO":999,"REV_AT_EPOCH":12237,"BSTAR":1.5354581e-5,"MEAN_MOTION_DOT":1.6e-6,"MEAN_MOTION_DDOT":0},{"OBJECT_NAME":"CZ-2F DEB","OBJECT_ID":"2022-093H","EPOCH":"2026-03-09T22:47:12.359904","MEAN_MOTION":15.21733628,"ECCENTRICITY":0.00740619,"INCLINATION":50.0217,"RA_OF_ASC_NODE":315.3952,"ARG_OF_PERICENTER":34.8084,"MEAN_ANOMALY":325.7683,"EPHEMERIS_TYPE":0,"CLASSIFICATION_TYPE":"U","NORAD_CAT_ID":53364,"ELEMENT_SET_NO":999,"REV_AT_EPOCH":19831,"BSTAR":0.00048014935,"MEAN_MOTION_DOT":0.00011557,"MEAN_MOTION_DDOT":0}]
